{
  "norad_id": 29643,
  "name": "WILDBLUE-1",
  "history": [
    {
      "epoch": "2026-04-10T05:09:55.905696Z",
      "apogee_km": 35794.13832914916,
      "perigee_km": 35780.19426334908,
      "latitude_deg": 2.5975937899561643,
      "longitude_deg": -111.18764570914159,
      "height_km": 35791.5291326092,
      "semi_major_axis_km": 42165.30329624912,
      "eccentricity": 0.00016535,
      "inclination_deg": 2.627,
      "raan_deg": 81.3164,
      "arg_perigee_deg": 305.9241,
      "mean_anomaly_deg": 137.5,
      "mean_motion_rev_day": 1.00269747
    },
    {
      "epoch": "2026-04-11T15:23:22.860384Z",
      "apogee_km": 35793.19586578211,
      "perigee_km": 35779.652608712706,
      "latitude_deg": -2.218731196775963,
      "longitude_deg": -111.23302832113197,
      "height_km": 35783.39207054707,
      "semi_major_axis_km": 42164.561237247406,
      "eccentricity": 0.0001606,
      "inclination_deg": 2.6304,
      "raan_deg": 81.2967,
      "arg_perigee_deg": 303.5297,
      "mean_anomaly_deg": 294.6872,
      "mean_motion_rev_day": 1.00272394
    },
    {
      "epoch": "2026-04-13T05:02:17.750688Z",
      "apogee_km": 35793.02433683199,
      "perigee_km": 35779.87067304984,
      "latitude_deg": 2.608172087069072,
      "longitude_deg": -111.1838056448473,
      "height_km": 35790.64154267593,
      "semi_major_axis_km": 42164.58450494092,
      "eccentricity": 0.00015598,
      "inclination_deg": 2.6344,
      "raan_deg": 81.2747,
      "arg_perigee_deg": 305.4222,
      "mean_anomaly_deg": 139.0949,
      "mean_motion_rev_day": 1.00272311
    },
    {
      "epoch": "2026-04-14T15:15:46.630368Z",
      "apogee_km": 35792.89831954108,
      "perigee_km": 35780.06340986306,
      "latitude_deg": -2.2466466956456808,
      "longitude_deg": -111.23197550612976,
      "height_km": 35783.9533445442,
      "semi_major_axis_km": 42164.61786470207,
      "eccentricity": 0.0001522,
      "inclination_deg": 2.6382,
      "raan_deg": 81.2542,
      "arg_perigee_deg": 308.0661,
      "mean_anomaly_deg": 291.2502,
      "mean_motion_rev_day": 1.00272192
    },
    {
      "epoch": "2026-04-15T15:13:10.751808Z",
      "apogee_km": 35792.80832870385,
      "perigee_km": 35780.18423749889,
      "latitude_deg": -2.2557850479722354,
      "longitude_deg": -111.23157894858413,
      "height_km": 35784.13668430475,
      "semi_major_axis_km": 42164.63328310138,
      "eccentricity": 0.0001497,
      "inclination_deg": 2.6409,
      "raan_deg": 81.2399,
      "arg_perigee_deg": 309.6549,
      "mean_anomaly_deg": 290.012,
      "mean_motion_rev_day": 1.00272137
    }
  ]
}